NORAD_CAT_ID,OBJECT_NAME,OBJECT_TYPE,EPOCH,MEAN_MOTION,ECCENTRICITY,INCLINATION,RA_OF_ASC_NODE,ARG_OF_PERICENTER,MEAN_ANOMALY,BSTAR,MEAN_MOTION_DOT,MEAN_MOTION_DDOT,TLE_LINE0,TLE_LINE1,TLE_LINE2,SEMIMAJOR_AXIS,PERIOD,APOGEE,PERIGEE,DECAYED
53399.0,STARLINK-4528,PAYLOAD,2023-03-13 22:06:53,15.08823621,0.0001197,53.2165,345.2642,61.7673,298.344,0.00034353,5.181e-05,0.0,0 STARLINK-4528,1 53399U 22097M   23072.92145094  .00005181  00000-0  34353-3 0  9993,2 53399  53.2165 345.2642 0001197  61.7673 298.3440 15.08823621 33694,6917.93,95.439,540.624,538.967,0.0
53399.0,STARLINK-4528,PAYLOAD,2023-03-14 02:53:02,15.08838204,0.000129,53.216,344.3724,95.1411,264.9729,0.00095172,0.0001489,0.0,0 STARLINK-4528,1 53399U 22097M   23073.12016865  .00014890  00000-0  95172-3 0  9992,2 53399  53.2160 344.3724 0001290  95.1411 264.9729 15.08838204 33237,6917.886,95.438,540.643,538.858,0.0
53399.0,STARLINK-4528,PAYLOAD,2023-03-14 10:49:58,15.08838161,0.000169,53.2157,342.8857,84.6395,275.479,0.00073448,0.0001142,0.0,0 STARLINK-4528,1 53399U 22097M   23073.45137190  .00011420  00000-0  73448-3 0  9991,2 53399  53.2157 342.8857 0001690  84.6395 275.4790 15.08838161 33777,6917.886,95.438,540.92,538.582,0.0
53399.0,STARLINK-4528,PAYLOAD,2023-03-15 02:43:49,15.08868117,0.0001243,53.2154,339.911,102.0888,258.0243,0.0019983,0.00031683,0.0,0 STARLINK-4528,1 53399U 22097M   23074.11376358  .00031683  00000-0  19983-2 0  9992,2 53399  53.2154 339.9110 0001243 102.0888 258.0243 15.08868117 33380,6917.794,95.436,540.519,538.8,0.0
53399.0,STARLINK-4528,PAYLOAD,2023-03-15 21:48:27,15.08840973,0.0001187,53.2146,336.3435,95.8744,264.2384,0.00020675,3.004e-05,0.0,0 STARLINK-4528,1 53399U 22097M   23074.90864802  .00003004  00000-0  20675-3 0  9992,2 53399  53.2146 336.3435 0001187  95.8744 264.2384 15.08840973 33991,6917.877,95.437,540.564,538.921,0.0
53399.0,STARLINK-4528,PAYLOAD,2023-03-16 04:09:59,15.08854903,0.0001369,53.2146,335.1546,100.289,259.8256,0.00097369,0.00015249,0.0,0 STARLINK-4528,1 53399U 22097M   23075.17360683  .00015249  00000-0  97369-3 0  9998,2 53399  53.2146 335.1546 0001369 100.2890 259.8256 15.08854903 33543,6917.835,95.437,540.647,538.753,0.0
53399.0,STARLINK-4528,PAYLOAD,2023-03-16 07:20:45,15.08856596,0.0001456,53.2143,334.559,77.3788,282.7367,0.0010169,0.0001594,0.0,0 STARLINK-4528,1 53399U 22097M   23075.30608736  .00015940  00000-0  10169-2 0  9997,2 53399  53.2143 334.5590 0001456  77.3788 282.7367 15.08856596 34054,6917.83,95.437,540.702,538.687,0.0
53399.0,STARLINK-4528,PAYLOAD,2023-03-16 23:14:38,15.08822789,0.0001464,53.2151,331.5827,82.7495,277.3663,0.0010875,0.00017054,0.0,0 STARLINK-4528,1 53399U 22097M   23075.96850056  .00017054  00000-0  10875-2 0  9995,2 53399  53.2151 331.5827 0001464  82.7495 277.3663 15.08822789 33669,6917.933,95.439,540.811,538.785,0.0
53399.0,STARLINK-4528,PAYLOAD,2023-03-17 10:22:20,15.08834114,0.0001452,53.2146,329.504,84.3163,275.7994,0.0010005,0.00015668,0.0,0 STARLINK-4528,1 53399U 22097M   23076.43218413  .00015668  00000-0  10005-2 0  9997,2 53399  53.2146 329.5040 0001452  84.3163 275.7994 15.08834114 34221,6917.898,95.438,540.768,538.759,0.0
53399.0,STARLINK-4528,PAYLOAD,2023-03-18 02:16:12,15.08851477,0.0001591,53.2146,326.5298,84.6689,275.4485,0.00092933,0.00014538,0.0,0 STARLINK-4528,1 53399U 22097M   23077.09458338  .00014538  00000-0  92933-3 0  9998,2 53399  53.2146 326.5298 0001591  84.6689 275.4485 15.08851477 33832,6917.845,95.437,540.811,538.61,0.0
53399.0,STARLINK-4528,PAYLOAD,2023-03-18 19:45:26,15.08855114,0.0001626,53.2136,323.2591,84.3099,275.8079,0.00047315,7.253e-05,0.0,0 STARLINK-4528,1 53399U 22097M   23077.82321885  .00007253  00000-0  47315-3 0  9995,2 53399  53.2136 323.2591 0001626  84.3099 275.8079 15.08855114 33949,6917.834,95.437,540.824,538.574,0.0
53399.0,STARLINK-4528,PAYLOAD,2023-03-18 22:56:12,15.08859282,0.0001389,53.2149,322.6651,86.1069,274.0081,0.00055719,8.595e-05,0.0,0 STARLINK-4528,1 53399U 22097M   23077.95569610  .00008595  00000-0  55719-3 0  9996,2 53399  53.2149 322.6651 0001389  86.1069 274.0081 15.08859282 34457,6917.821,95.436,540.647,538.726,0.0
53399.0,STARLINK-4528,PAYLOAD,2023-03-19 02:06:58,15.08863188,0.0001417,53.2149,322.07,87.3718,272.7436,0.00060498,9.359e-05,0.0,0 STARLINK-4528,1 53399U 22097M   23078.08817378  .00009359  00000-0  60498-3 0  9997,2 53399  53.2149 322.0700 0001417  87.3718 272.7436 15.08863188 34473,6917.81,95.436,540.655,538.694,0.0
53399.0,STARLINK-4528,PAYLOAD,2023-03-19 21:11:35,15.0884667,0.0001363,53.2144,318.4992,86.5373,273.5775,0.00010896,1.447e-05,0.0,0 STARLINK-4528,1 53399U 22097M   23078.88305523  .00001447  00000-0  10896-3 0  9996,2 53399  53.2144 318.4992 0001363  86.5373 273.5775 15.08846670 34100,6917.86,95.437,540.668,538.782,0.0
53399.0,STARLINK-4528,PAYLOAD,2023-03-20 08:19:17,15.08843771,0.0001337,53.2145,316.4198,70.1788,289.9349,6.0726e-05,6.79e-06,0.0,0 STARLINK-4528,1 53399U 22097M   23079.34673572  .00000679  00000-0  60726-4 0  9994,2 53399  53.2145 316.4198 0001337  70.1788 289.9349 15.08843771 34665,6917.869,95.437,540.659,538.809,0.0
53399.0,STARLINK-4528,PAYLOAD,2023-03-20 22:37:45,15.08849557,0.0001344,53.2156,313.7444,74.9484,285.1657,0.00020419,2.964e-05,0.0,0 STARLINK-4528,1 53399U 22097M   23079.94289321  .00002964  00000-0  20419-3 0  9998,2 53399  53.2156 313.7444 0001344  74.9484 285.1657 15.08849557 34268,6917.851,95.437,540.646,538.786,0.0
53399.0,STARLINK-4528,PAYLOAD,2023-03-21 01:48:32,15.08853189,0.0001349,53.2153,313.1491,72.8987,287.2153,0.00036485,5.525e-05,0.0,0 STARLINK-4528,1 53399U 22097M   23080.07537207  .00005525  00000-0  36485-3 0  9999,2 53399  53.2153 313.1491 0001349  72.8987 287.2153 15.08853189 34777,6917.84,95.437,540.638,538.772,0.0
53399.0,STARLINK-4528,PAYLOAD,2023-03-21 19:17:47,15.08836977,0.0001368,53.2151,309.8783,68.753,291.3608,4.4757e-06,-2.17e-06,0.0,0 STARLINK-4528,1 53399U 22097M   23080.80401779 -.00000217  00000-0  44757-5 0  9991,2 53399  53.2151 309.8783 0001368  68.7530 291.3608 15.08836977 34395,6917.89,95.438,540.701,538.808,0.0
53399.0,STARLINK-4528,PAYLOAD,2023-03-21 22:28:33,15.08842969,0.0001298,53.2143,309.2819,75.0669,285.0467,0.00011653,1.567e-05,0.0,0 STARLINK-4528,1 53399U 22097M   23080.93649403  .00001567  00000-0  11653-3 0  9998,2 53399  53.2143 309.2819 0001298  75.0669 285.0467 15.08842969 34904,6917.871,95.437,540.634,538.838,0.0
53399.0,STARLINK-4528,PAYLOAD,2023-03-22 00:03:56,15.08843649,0.0001281,53.2141,308.9846,77.2623,282.8512,0.0001339,1.844e-05,0.0,0 STARLINK-4528,1 53399U 22097M   23081.00273378  .00001844  00000-0  13390-3 0  9999,2 53399  53.2141 308.9846 0001281  77.2623 282.8512 15.08843649 34423,6917.869,95.437,540.62,538.848,0.0
53399.0,STARLINK-4528,PAYLOAD,2023-03-22 19:08:34,15.08841265,0.0001328,53.2137,305.417,84.2542,275.8601,0.00012139,1.645e-05,0.0,0 STARLINK-4528,1 53399U 22097M   23081.79761716  .00001645  00000-0  12139-3 0  9992,2 53399  53.2137 305.4170 0001328  84.2542 275.8601 15.08841265 34546,6917.877,95.437,540.66,538.823,0.0
53399.0,STARLINK-4528,PAYLOAD,2023-03-22 20:43:57,15.08842329,0.0001278,53.2131,305.1186,83.1321,276.9817,5.9948e-05,6.66e-06,0.0,0 STARLINK-4528,1 53399U 22097M   23081.86385623  .00000666  00000-0  59948-4 0  9991,2 53399  53.2131 305.1186 0001278  83.1321 276.9817 15.08842329 35040,6917.873,95.437,540.622,538.854,0.0
53399.0,STARLINK-4528,PAYLOAD,2023-03-22 22:19:20,15.08844388,0.0001284,53.2132,304.8213,82.7717,277.3421,0.00010922,1.451e-05,0.0,0 STARLINK-4528,1 53399U 22097M   23081.93009549  .00001451  00000-0  10922-3 0  9990,2 53399  53.2132 304.8213 0001284  82.7717 277.3421 15.08844388 35053,6917.867,95.437,540.62,538.844,0.0
53399.0,STARLINK-4528,PAYLOAD,2023-03-23 20:34:43,15.08864873,0.0001225,53.2135,300.658,84.0178,276.0953,0.00050395,7.747e-05,0.0,0 STARLINK-4528,1 53399U 22097M   23082.85744557  .00007747  00000-0  50395-3 0  9999,2 53399  53.2135 300.6580 0001225  84.0178 276.0953 15.08864873 34706,6917.804,95.436,540.517,538.822,0.0
53399.0,STARLINK-4528,PAYLOAD,2023-03-23 22:10:06,15.08869705,0.0001339,53.2132,300.361,85.7786,274.3359,0.0008151,0.00012719,0.0,0 STARLINK-4528,1 53399U 22097M   23082.92368605  .00012719  00000-0  81510-3 0  9991,2 53399  53.2132 300.3610 0001339  85.7786 274.3359 15.08869705 35209,6917.79,95.436,540.581,538.728,0.0
53399.0,STARLINK-4528,PAYLOAD,2023-03-23 23:45:29,15.08876912,0.0001301,53.2128,300.0637,87.483,272.6311,0.0010033,0.00015732,0.0,0 STARLINK-4528,1 53399U 22097M   23082.98992335  .00015732  00000-0  10033-2 0  9999,2 53399  53.2128 300.0637 0001301  87.4830 272.6311 15.08876912 34721,6917.768,95.435,540.533,538.733,0.0
53399.0,STARLINK-4528,PAYLOAD,2023-03-24 12:28:34,15.08856088,9.5e-05,53.2131,297.6834,95.8127,264.2973,0.00031734,4.768e-05,0.0,0 STARLINK-4528,1 53399U 22097M   23083.51984358  .00004768  00000-0  31734-3 0  9994,2 53399  53.2131 297.6834 0000950  95.8127 264.2973 15.08856088 35292,6917.831,95.437,540.353,539.039,0.0
53399.0,STARLINK-4528,PAYLOAD,2023-03-24 15:39:20,15.08845742,9.51e-05,53.212,297.0925,96.2619,263.8481,-9.6474e-06,-4.41e-06,0.0,0 STARLINK-4528,1 53399U 22097M   23083.65232566 -.00000441  00000-0 -96474-5 0  9996,2 53399  53.2120 297.0925 0000951  96.2619 263.8481 15.08845742 34829,6917.863,95.437,540.386,539.07,0.0
53399.0,STARLINK-4528,PAYLOAD,2023-03-24 20:25:30,15.08845045,9.29e-05,53.2135,296.1983,85.2852,274.8246,-1.422e-05,-5.14e-06,0.0,0 STARLINK-4528,1 53399U 22097M   23083.85104578 -.00000514  00000-0 -14220-4 0  9998,2 53399  53.2135 296.1983 0000929  85.2852 274.8246 15.08845045 35346,6917.865,95.437,540.373,539.087,0.0
53399.0,STARLINK-4528,PAYLOAD,2023-03-25 20:16:19,15.08806728,9.61e-05,53.214,291.7353,81.4144,278.6956,-0.00044806,-7.405e-05,0.0,0 STARLINK-4528,1 53399U 22097M   23084.84467302 -.00007405  00000-0 -44806-3 0  9993,2 53399  53.2140 291.7353 0000961  81.4144 278.6956 15.08806728 35000,6917.982,95.44,540.512,539.182,0.0
